{"type": "FeatureCollection", "features": [ {"type": "Feature", "properties": {"norad_id": 31010, "name": "FENGYUN 1C DEB", "group": "fengyun-1c-debris", "lat": 44.50794188985636, "lon": -19.852373293188037, "alt_km": 881.2128744090387, "timestamp": "2025-12-23T16:57:12.632652+00:00", "meta": {"OBJECT_NAME": "FENGYUN 1C DEB", "OBJECT_ID": "1999-025BDC", "EPOCH": "2025-12-21T15:29:23.505216", "MEAN_MOTION": 14.25926133, "ECCENTRICITY": 0.01135325, "INCLINATION": 101.7249, "RA_OF_ASC_NODE": 145.6193, "ARG_OF_PERICENTER": 331.1393, "MEAN_ANOMALY": 28.3526, "EPHEMERIS_TYPE": 0, "CLASSIFICATION_TYPE": "U", "NORAD_CAT_ID": 31010, "ELEMENT_SET_NO": 999, "REV_AT_EPOCH": 95756, "BSTAR": 0.0025083825, "MEAN_MOTION_DOT": 6.333e-05, "MEAN_MOTION_DDOT": 0}, "tle": {"line1": "1 31010U 99025BDC 25355.64541094  .00006333  00000+0  25084-2 0  9998", "line2": "2 31010 101.7249 145.6193 0113532 331.1393  28.3526 14.25926133957562"}}, "geometry": {"type": "Point", "coordinates": [-19.852373293188037, 44.50794188985636]}}, {"type": "Feature", "properties": {"norad_id": 31012, "name": "FENGYUN 1C DEB", "group": "fengyun-1c-debris", "lat": -46.410809150636005, "lon": -94.48590615034914, "alt_km": 808.8747736561781, "timestamp": "2025-12-23T16:57:12.632662+00:00", "meta": {"OBJECT_NAME": "FENGYUN 1C DEB", "OBJECT_ID": "1999-025BDE", "EPOCH": "2025-12-22T23:17:32.676576", "MEAN_MOTION": 14.27872, "ECCENTRICITY": 0.00815246, "INCLINATION": 98.9115, "RA_OF_ASC_NODE": 255.2765, "ARG_OF_PERICENTER": 221.3765, "MEAN_ANOMALY": 270.0903, "EPHEMERIS_TYPE": 0, "CLASSIFICATION_TYPE": "U", "NORAD_CAT_ID": 31012, "ELEMENT_SET_NO": 999, "REV_AT_EPOCH": 97893, "BSTAR": 0.00016404263, "MEAN_MOTION_DOT": 3.74e-06, "MEAN_MOTION_DDOT": 0}, "tle": {"line1": "1 31012U 99025BDE 25356.97051709  .00000374  00000+0  16404-3 0  9992", "line2": "2 31012  98.9115 255.2765 0081524 221.3765 270.0903 14.27872000978938"}}, "geometry": {"type": "Point", "coordinates": [-94.48590615034914, -46.410809150636005]}}, {"type": "Feature", "properties": {"norad_id": 31014, "name": "FENGYUN 1C DEB", "group": "fengyun-1c-debris", "lat": 49.29745184504088, "lon": 163.41362393989903, "alt_km": 840.6365264052347, "timestamp": "2025-12-23T16:57:12.632672+00:00", "meta": {"OBJECT_NAME": "FENGYUN 1C DEB", "OBJECT_ID": "1999-025BDG", "EPOCH": "2025-12-21T21:32:52.748736", "MEAN_MOTION": 13.98493534, "ECCENTRICITY": 0.0088324, "INCLINATION": 98.8694, "RA_OF_ASC_NODE": 331.2063, "ARG_OF_PERICENTER": 168.2006, "MEAN_ANOMALY": 221.8264, "EPHEMERIS_TYPE": 0, "CLASSIFICATION_TYPE": "U", "NORAD_CAT_ID": 31014, "ELEMENT_SET_NO": 999, "REV_AT_EPOCH": 95964, "BSTAR": -6.4447461e-05, "MEAN_MOTION_DOT": -1.38e-06, "MEAN_MOTION_DDOT": 0}, "tle": {"line1": "1 31014U 99025BDG 25355.89783274 -.00000138  00000+0 -64447-4 0  9994", "line2": "2 31014  98.8694 331.2063 0088324 168.2006 221.8264 13.98493534959648"}}, "geometry": {"type": "Point", "coordinates": [163.41362393989903, 49.29745184504088]}}, {"type": "Feature", "properties": {"norad_id": 31016, "name": "FENGYUN 1C DEB", "group": "fengyun-1c-debris", "lat": 64.25042568365903, "lon": -4.7132703847142965, "alt_km": 863.876847184948, "timestamp": "2025-12-23T16:57:12.632682+00:00", "meta": {"OBJECT_NAME": "FENGYUN 1C DEB", "OBJECT_ID": "1999-025BDJ", "EPOCH": "2025-12-22T07:07:44.465952", "MEAN_MOTION": 14.30509253, "ECCENTRICITY": 0.01120849, "INCLINATION": 98.4358, "RA_OF_ASC_NODE": 11.8386, "ARG_OF_PERICENTER": 245.6521, "MEAN_ANOMALY": 126.2907, "EPHEMERIS_TYPE": 0, "CLASSIFICATION_TYPE": "U", "NORAD_CAT_ID": 31016, "ELEMENT_SET_NO": 999, "REV_AT_EPOCH": 97607, "BSTAR": 0.00025324272, "MEAN_MOTION_DOT": 6.62e-06, "MEAN_MOTION_DDOT": 0}, "tle": {"line1": "1 31016U 99025BDJ 25356.29704243  .00000662  00000+0  25324-3 0  9990", "line2": "2 31016  98.4358  11.8386 0112084 245.6521 126.2907 14.30509253976076"}}, "geometry": {"type": "Point", "coordinates": [-4.7132703847142965, 64.25042568365903]}}, {"type": "Feature", "properties": {"norad_id": 31017, "name": "FENGYUN 1C DEB", "group": "fengyun-1c-debris", "lat": -81.29636637124806, "lon": 77.15039757716764, "alt_km": 817.3328717965032, "timestamp": "2025-12-23T16:57:12.632694+00:00", "meta": {"OBJECT_NAME": "FENGYUN 1C DEB", "OBJECT_ID": "1999-025BDK", "EPOCH": "2025-12-23T05:32:16.967616", "MEAN_MOTION": 14.08838711, "ECCENTRICITY": 0.01126729, "INCLINATION": 98.6802, "RA_OF_ASC_NODE": 342.9738, "ARG_OF_PERICENTER": 320.4521, "MEAN_ANOMALY": 58.9275, "EPHEMERIS_TYPE": 0, "CLASSIFICATION_TYPE": "U", "NORAD_CAT_ID": 31017, "ELEMENT_SET_NO": 999, "REV_AT_EPOCH": 96444, "BSTAR": 0.00036504458, "MEAN_MOTION_DOT": 6.25e-06, "MEAN_MOTION_DDOT": 0}, "tle": {"line1": "1 31017U 99025BDK 25357.23075194  .00000625  00000+0  36504-3 0  9993", "line2": "2 31017  98.6802 342.9738 0112672 320.4521  58.9275 14.08838711964443"}}, "geometry": {"type": "Point", "coordinates": [77.15039757716764, -81.29636637124806]}}, {"type": "Feature", "properties": {"norad_id": 31018, "name": "FENGYUN 1C DEB", "group": "fengyun-1c-debris", "lat": 80.21053692223934, "lon": -28.276696549047152, "alt_km": 786.0022648950826, "timestamp": "2025-12-23T16:57:12.632705+00:00", "meta": {"OBJECT_NAME": "FENGYUN 1C DEB", "OBJECT_ID": "1999-025BDL", "EPOCH": "2025-12-23T04:39:10.329984", "MEAN_MOTION": 14.16986143, "ECCENTRICITY": 0.00583957, "INCLINATION": 99.0246, "RA_OF_ASC_NODE": 84.1174, "ARG_OF_PERICENTER": 96.6875, "MEAN_ANOMALY": 264.095, "EPHEMERIS_TYPE": 0, "CLASSIFICATION_TYPE": "U", "NORAD_CAT_ID": 31018, "ELEMENT_SET_NO": 999, "REV_AT_EPOCH": 96203, "BSTAR": 0.0015154697, "MEAN_MOTION_DOT": 3.052e-05, "MEAN_MOTION_DDOT": 0}, "tle": {"line1": "1 31018U 99025BDL 25357.19386956  .00003052  00000+0  15155-2 0  9995", "line2": "2 31018  99.0246  84.1174 0058395  96.6875 264.0950 14.16986143962030"}}, "geometry": {"type": "Point", "coordinates": [-28.276696549047152, 80.21053692223934]}}, {"type": "Feature", "properties": {"norad_id": 31019, "name": "FENGYUN 1C DEB", "group": "fengyun-1c-debris", "lat": -51.15911677376468, "lon": 0.949699878369966, "alt_km": 956.4529041888081, "timestamp": "2025-12-23T16:57:12.632717+00:00", "meta": {"OBJECT_NAME": "FENGYUN 1C DEB", "OBJECT_ID": "1999-025BDM", "EPOCH": "2025-12-21T19:04:30.482400", "MEAN_MOTION": 11.82992381, "ECCENTRICITY": 0.11182228, "INCLINATION": 98.7026, "RA_OF_ASC_NODE": 190.6549, "ARG_OF_PERICENTER": 266.0498, "MEAN_ANOMALY": 114.5316, "EPHEMERIS_TYPE": 0, "CLASSIFICATION_TYPE": "U", "NORAD_CAT_ID": 31019, "ELEMENT_SET_NO": 999, "REV_AT_EPOCH": 55288, "BSTAR": 0.0023777333, "MEAN_MOTION_DOT": 8.64e-06, "MEAN_MOTION_DDOT": 0}, "tle": {"line1": "1 31019U 99025BDM 25355.79479725  .00000864  00000+0  23777-2 0  9994", "line2": "2 31019  98.7026 190.6549 1118222 266.0498 114.5316 11.82992381552887"}}, "geometry": {"type": "Point", "coordinates": [0.949699878369966, -51.15911677376468]}}, {"type": "Feature", "properties": {"norad_id": 31021, "name": "FENGYUN 1C DEB", "group": "fengyun-1c-debris", "lat": 22.519289003261033, "lon": 105.0583578944552, "alt_km": 831.2915344945613, "timestamp": "2025-12-23T16:57:12.632728+00:00", "meta": {"OBJECT_NAME": "FENGYUN 1C DEB", "OBJECT_ID": "1999-025BDP", "EPOCH": "2025-12-21T02:59:32.283744", "MEAN_MOTION": 14.75370695, "ECCENTRICITY": 0.0268148, "INCLINATION": 98.3483, "RA_OF_ASC_NODE": 105.8819, "ARG_OF_PERICENTER": 215.0908, "MEAN_ANOMALY": 143.238, "EPHEMERIS_TYPE": 0, "CLASSIFICATION_TYPE": "U", "NORAD_CAT_ID": 31021, "ELEMENT_SET_NO": 999, "REV_AT_EPOCH": 73556, "BSTAR": 0.0006701, "MEAN_MOTION_DOT": 8.142e-05, "MEAN_MOTION_DDOT": 0}, "tle": {"line1": "1 31021U 99025BDP 25355.12467921  .00008142  00000+0  67010-3 0  9995", "line2": "2 31021  98.3483 105.8819 0268148 215.0908 143.2380 14.75370695735564"}}, "geometry": {"type": "Point", "coordinates": [105.0583578944552, 22.519289003261033]}}, {"type": "Feature", "properties": {"norad_id": 31022, "name": "FENGYUN 1C DEB", "group": "fengyun-1c-debris", "lat": 10.11921619331603, "lon": 63.33654804251633, "alt_km": 909.6300860354231, "timestamp": "2025-12-23T16:57:12.632738+00:00", "meta": {"OBJECT_NAME": "FENGYUN 1C DEB", "OBJECT_ID": "1999-025BDQ", "EPOCH": "2025-12-20T22:31:38.032032", "MEAN_MOTION": 13.90456454, "ECCENTRICITY": 0.0110263, "INCLINATION": 99.5164, "RA_OF_ASC_NODE": 238.7889, "ARG_OF_PERICENTER": 99.9307, "MEAN_ANOMALY": 261.4317, "EPHEMERIS_TYPE": 0, "CLASSIFICATION_TYPE": "U", "NORAD_CAT_ID": 31022, "ELEMENT_SET_NO": 999, "REV_AT_EPOCH": 62122, "BSTAR": 0.00031869, "MEAN_MOTION_DOT": 3.7e-06, "MEAN_MOTION_DDOT": 0}, "tle": {"line1": "1 31022U 99025BDQ 25354.93863463  .00000370  00000+0  31869-3 0  9993", "line2": "2 31022  99.5164 238.7889 0110263  99.9307 261.4317 13.90456454621227"}}, "geometry": {"type": "Point", "coordinates": [63.33654804251633, 10.11921619331603]}}, {"type": "Feature", "properties": {"norad_id": 31023, "name": "FENGYUN 1C DEB", "group": "fengyun-1c-debris", "lat": 0.9556729589491282, "lon": 163.02764584769622, "alt_km": 814.9260517040993, "timestamp": "2025-12-23T16:57:12.632771+00:00", "meta": {"OBJECT_NAME": "FENGYUN 1C DEB", "OBJECT_ID": "1999-025BDR", "EPOCH": "2025-12-20T19:49:13.315584", "MEAN_MOTION": 14.06693358, "ECCENTRICITY": 0.00824044, "INCLINATION": 98.8149, "RA_OF_ASC_NODE": 340.0727, "ARG_OF_PERICENTER": 198.6079, "MEAN_ANOMALY": 161.2072, "EPHEMERIS_TYPE": 0, "CLASSIFICATION_TYPE": "U", "NORAD_CAT_ID": 31023, "ELEMENT_SET_NO": 999, "REV_AT_EPOCH": 69615, "BSTAR": 0.00023624773, "MEAN_MOTION_DOT": 3.61e-06, "MEAN_MOTION_DDOT": 0}, "tle": {"line1": "1 31023U 99025BDR 25354.82584856  .00000361  00000+0  23625-3 0  9999", "line2": "2 31023  98.8149 340.0727 0082404 198.6079 161.2072 14.06693358696152"}}, "geometry": {"type": "Point", "coordinates": [163.02764584769622, 0.9556729589491282]}}]}